{
    "links": {
        "self": "http://www.neowsapp.com/rest/v1/neo/3893230?api_key=iIulBulltgU6a56xZRHN4H3l9WmuAYTsLGpBGhQ2"
    },
    "id": "3893230",
    "neo_reference_id": "3893230",
    "name": "(2019 WD)",
    "designation": "2019 WD",
    "nasa_jpl_url": "http://ssd.jpl.nasa.gov/sbdb.cgi?sstr=3893230",
    "absolute_magnitude_h": 26.3,
    "estimated_diameter": {
        "kilometers": {
            "estimated_diameter_min": 0.0146067964,
            "estimated_diameter_max": 0.0326617897
        },
        "meters": {
            "estimated_diameter_min": 14.6067964271,
            "estimated_diameter_max": 32.6617897446
        },
        "miles": {
            "estimated_diameter_min": 0.0090762397,
            "estimated_diameter_max": 0.020295089
        },
        "feet": {
            "estimated_diameter_min": 47.92256199,
            "estimated_diameter_max": 107.1581062656
        }
    },
    "is_potentially_hazardous_asteroid": false,
    "close_approach_data": [
        {
            "close_approach_date": "2018-03-06",
            "close_approach_date_full": "2018-Mar-06 18:28",
            "epoch_date_close_approach": 1520360880000,
            "relative_velocity": {
                "kilometers_per_second": "2.388111375",
                "kilometers_per_hour": "8597.2009498993",
                "miles_per_hour": "5341.9663346749"
            },
            "miss_distance": {
                "astronomical": "1.8334457845",
                "lunar": "713.2104101705",
                "kilometers": "274279584.121679015",
                "miles": "170429430.655499807"
            },
            "orbiting_body": "Juptr"
        },
        {
            "close_approach_date": "2019-11-15",
            "close_approach_date_full": "2019-Nov-15 20:57",
            "epoch_date_close_approach": 1573851420000,
            "relative_velocity": {
                "kilometers_per_second": "8.5889254472",
                "kilometers_per_hour": "30920.1316098419",
                "miles_per_hour": "19212.5673327932"
            },
            "miss_distance": {
                "astronomical": "0.006366653",
                "lunar": "2.476628017",
                "kilometers": "952437.72782911",
                "miles": "591817.361137318"
            },
            "orbiting_body": "Earth"
        },
        {
            "close_approach_date": "2019-11-16",
            "close_approach_date_full": "2019-Nov-16 07:09",
            "epoch_date_close_approach": 1573888140000,
            "relative_velocity": {
                "kilometers_per_second": "8.4839618251",
                "kilometers_per_hour": "30542.2625705333",
                "miles_per_hour": "18977.7742066739"
            },
            "miss_distance": {
                "astronomical": "0.0058429953",
                "lunar": "2.2729251717",
                "kilometers": "874099.651300011",
                "miles": "543140.3375657118"
            },
            "orbiting_body": "Moon"
        },
        {
            "close_approach_date": "2026-12-23",
            "close_approach_date_full": "2026-Dec-23 19:52",
            "epoch_date_close_approach": 1798055520000,
            "relative_velocity": {
                "kilometers_per_second": "20.0858149058",
                "kilometers_per_hour": "72308.9336608696",
                "miles_per_hour": "44929.9593627775"
            },
            "miss_distance": {
                "astronomical": "0.3674916428",
                "lunar": "142.9542490492",
                "kilometers": "54975967.005680836",
                "miles": "34160481.8547380968"
            },
            "orbiting_body": "Earth"
        }
    ],
    "orbital_data": {
        "orbit_id": "6",
        "orbit_determination_date": "2019-12-05 11:32:30",
        "first_observation_date": "2019-11-17",
        "last_observation_date": "2019-11-23",
        "data_arc_in_days": 6,
        "observations_used": 53,
        "orbit_uncertainty": "7",
        "minimum_orbit_intersection": ".00550722",
        "jupiter_tisserand_invariant": "3.332",
        "epoch_osculation": "2459000.5",
        "eccentricity": ".57914404905668",
        "semi_major_axis": "2.319249367622533",
        "inclination": "1.48709862515369",
        "ascending_node_longitude": "243.3174374573662",
        "orbital_period": "1290.088777003688",
        "perihelion_distance": ".9760698980854746",
        "perihelion_argument": "152.0009004075875",
        "aphelion_distance": "3.662428837159591",
        "perihelion_time": "2458789.597162503193",
        "mean_anomaly": "58.85255561651423",
        "mean_motion": ".2790505633543473",
        "equinox": "J2000",
        "orbit_class": {
            "orbit_class_type": "APO",
            "orbit_class_description": "Near-Earth asteroid orbits which cross the Earth’s orbit similar to that of 1862 Apollo",
            "orbit_class_range": "a (semi-major axis) > 1.0 AU; q (perihelion) < 1.017 AU"
        }
    },
    "is_sentry_object": false
}